STARLINK-31325          
1 59165U 24044P   26068.79879898 -.00001795  00000+0 -55766-4 0  9993
2 59165  42.9967 106.2959 0000394 343.0540  17.0298 15.27565632113589
2025-155V               
1 64895U 25155V   26068.85787115  .00013705  00000+0  51002-3 0  9990
2 64895  97.4485  37.2490 0008035 152.8264 207.3397 15.27583301 65579
