[{"OBJECT_NAME":"STARLINK-31325","OBJECT_ID":"2024-044P","EPOCH":"2026-03-09T19:10:16.231872","MEAN_MOTION":15.27565632,"ECCENTRICITY":3.939e-5,"INCLINATION":42.9967,"RA_OF_ASC_NODE":106.2959,"ARG_OF_PERICENTER":343.054,"MEAN_ANOMALY":17.0298,"EPHEMERIS_TYPE":0,"CLASSIFICATION_TYPE":"U","NORAD_CAT_ID":59165,"ELEMENT_SET_NO":999,"REV_AT_EPOCH":11358,"BSTAR":-5.5766285e-5,"MEAN_MOTION_DOT":-1.795e-5,"MEAN_MOTION_DDOT":0},{"OBJECT_NAME":"OBJECT V","OBJECT_ID":"2025-155V","EPOCH":"2026-03-09T20:35:20.067360","MEAN_MOTION":15.27583301,"ECCENTRICITY":0.00080353,"INCLINATION":97.4485,"RA_OF_ASC_NODE":37.249,"ARG_OF_PERICENTER":152.8264,"MEAN_ANOMALY":207.3397,"EPHEMERIS_TYPE":0,"CLASSIFICATION_TYPE":"U","NORAD_CAT_ID":64895,"ELEMENT_SET_NO":999,"REV_AT_EPOCH":6557,"BSTAR":0.00051002361,"MEAN_MOTION_DOT":0.00013705,"MEAN_MOTION_DDOT":0}]
